{"fetched_at":"2026-07-17T17:38:22.296Z","source":"https://celestrak.org/NORAD/elements/gp.php?NAME=JILIN&FORMAT=JSON","constellation":"jilin-1-kuanfu","records":[{"OBJECT_NAME":"JILIN-1 KUANFU 01","OBJECT_ID":"2020-003A","EPOCH":"2026-07-17T06:55:30.783072","CLASSIFICATION_TYPE":"U","MEAN_MOTION":15.10873675,"ECCENTRICITY":0.00094635,"INCLINATION":97.502,"RA_OF_ASC_NODE":271.6573,"ARG_OF_PERICENTER":189.3859,"MEAN_ANOMALY":170.7196,"EPHEMERIS_TYPE":0,"NORAD_CAT_ID":45016,"ELEMENT_SET_NO":999,"REV_AT_EPOCH":35987,"BSTAR":0.000097932059,"MEAN_MOTION_DOT":0.00001567,"MEAN_MOTION_DDOT":0},{"OBJECT_NAME":"JILIN-1 KUANFU-01B","OBJECT_ID":"2021-061A","EPOCH":"2026-07-17T07:53:23.246592","CLASSIFICATION_TYPE":"U","MEAN_MOTION":15.09814159,"ECCENTRICITY":0.00057244,"INCLINATION":97.5207,"RA_OF_ASC_NODE":273.962,"ARG_OF_PERICENTER":330.5983,"MEAN_ANOMALY":29.4924,"EPHEMERIS_TYPE":0,"NORAD_CAT_ID":49003,"ELEMENT_SET_NO":999,"REV_AT_EPOCH":27789,"BSTAR":0.000073501997,"MEAN_MOTION_DOT":0.00001125,"MEAN_MOTION_DDOT":0},{"OBJECT_NAME":"JILIN-1 KUANFU 01C","OBJECT_ID":"2022-048A","EPOCH":"2026-07-17T06:06:40.584960","CLASSIFICATION_TYPE":"U","MEAN_MOTION":15.09605341,"ECCENTRICITY":0.00174712,"INCLINATION":97.525,"RA_OF_ASC_NODE":274.8796,"ARG_OF_PERICENTER":212.7474,"MEAN_ANOMALY":147.2673,"EPHEMERIS_TYPE":0,"NORAD_CAT_ID":52443,"ELEMENT_SET_NO":999,"REV_AT_EPOCH":23173,"BSTAR":0.000076621728,"MEAN_MOTION_DOT":0.00001171,"MEAN_MOTION_DDOT":0},{"OBJECT_NAME":"JILIN-1 KUANFU 02A","OBJECT_ID":"2023-127A","EPOCH":"2026-07-17T06:32:05.192448","CLASSIFICATION_TYPE":"U","MEAN_MOTION":15.10822139,"ECCENTRICITY":0.00104414,"INCLINATION":97.5571,"RA_OF_ASC_NODE":291.7115,"ARG_OF_PERICENTER":228.8086,"MEAN_ANOMALY":131.2244,"EPHEMERIS_TYPE":0,"NORAD_CAT_ID":57696,"ELEMENT_SET_NO":999,"REV_AT_EPOCH":16017,"BSTAR":0.00015997315,"MEAN_MOTION_DOT":0.00002597,"MEAN_MOTION_DDOT":0},{"OBJECT_NAME":"JILIN-01 KUANFU 02B 1","OBJECT_ID":"2024-169A","EPOCH":"2026-07-17T06:55:20.374464","CLASSIFICATION_TYPE":"U","MEAN_MOTION":15.09064525,"ECCENTRICITY":0.00013648,"INCLINATION":97.5577,"RA_OF_ASC_NODE":287.3497,"ARG_OF_PERICENTER":331.5959,"MEAN_ANOMALY":28.5195,"EPHEMERIS_TYPE":0,"NORAD_CAT_ID":61189,"ELEMENT_SET_NO":999,"REV_AT_EPOCH":10036,"BSTAR":0.00010052224,"MEAN_MOTION_DOT":0.00001529,"MEAN_MOTION_DDOT":0},{"OBJECT_NAME":"JILIN-01 KUANFU 02B 2","OBJECT_ID":"2024-169B","EPOCH":"2026-07-17T06:26:04.484544","CLASSIFICATION_TYPE":"U","MEAN_MOTION":15.09026114,"ECCENTRICITY":0.00048381,"INCLINATION":97.557,"RA_OF_ASC_NODE":286.7141,"ARG_OF_PERICENTER":269.7969,"MEAN_ANOMALY":90.2705,"EPHEMERIS_TYPE":0,"NORAD_CAT_ID":61190,"ELEMENT_SET_NO":999,"REV_AT_EPOCH":10036,"BSTAR":0.00012392041,"MEAN_MOTION_DOT":0.00001897,"MEAN_MOTION_DDOT":0},{"OBJECT_NAME":"JILIN-01 KUANFU 02B 3","OBJECT_ID":"2024-169C","EPOCH":"2026-07-17T06:38:53.003040","CLASSIFICATION_TYPE":"U","MEAN_MOTION":15.09064474,"ECCENTRICITY":0.00132255,"INCLINATION":97.5566,"RA_OF_ASC_NODE":287.1558,"ARG_OF_PERICENTER":198.4844,"MEAN_ANOMALY":161.5906,"EPHEMERIS_TYPE":0,"NORAD_CAT_ID":61191,"ELEMENT_SET_NO":999,"REV_AT_EPOCH":10036,"BSTAR":0.00011404244,"MEAN_MOTION_DOT":0.00001745,"MEAN_MOTION_DDOT":0},{"OBJECT_NAME":"JILIN-01 KUANFU 02B 4","OBJECT_ID":"2024-169D","EPOCH":"2026-07-17T07:29:25.950624","CLASSIFICATION_TYPE":"U","MEAN_MOTION":15.09053401,"ECCENTRICITY":0.00142563,"INCLINATION":97.5533,"RA_OF_ASC_NODE":286.7157,"ARG_OF_PERICENTER":156.6587,"MEAN_ANOMALY":203.5292,"EPHEMERIS_TYPE":0,"NORAD_CAT_ID":61192,"ELEMENT_SET_NO":999,"REV_AT_EPOCH":10037,"BSTAR":0.00012853639,"MEAN_MOTION_DOT":0.00001976,"MEAN_MOTION_DDOT":0},{"OBJECT_NAME":"JILIN-01 KUANFU 02B 5","OBJECT_ID":"2024-169E","EPOCH":"2026-07-17T05:35:12.535008","CLASSIFICATION_TYPE":"U","MEAN_MOTION":15.09083001,"ECCENTRICITY":0.001336,"INCLINATION":97.5578,"RA_OF_ASC_NODE":287.4358,"ARG_OF_PERICENTER":180.4495,"MEAN_ANOMALY":179.6724,"EPHEMERIS_TYPE":0,"NORAD_CAT_ID":61193,"ELEMENT_SET_NO":999,"REV_AT_EPOCH":10036,"BSTAR":0.00010421816,"MEAN_MOTION_DOT":0.00001591,"MEAN_MOTION_DDOT":0},{"OBJECT_NAME":"JILIN-01 KUANFU 02B 6","OBJECT_ID":"2024-169F","EPOCH":"2026-07-17T06:09:19.414944","CLASSIFICATION_TYPE":"U","MEAN_MOTION":15.09042447,"ECCENTRICITY":0.00157916,"INCLINATION":97.5558,"RA_OF_ASC_NODE":287.351,"ARG_OF_PERICENTER":213.8587,"MEAN_ANOMALY":146.1635,"EPHEMERIS_TYPE":0,"NORAD_CAT_ID":61194,"ELEMENT_SET_NO":999,"REV_AT_EPOCH":10037,"BSTAR":0.00013271115,"MEAN_MOTION_DOT":0.00002042,"MEAN_MOTION_DDOT":0}]}
