JILIN-1 KUANFU 01       
1 45016U 20003A   26198.28855073  .00001567  00000+0  97932-4 0  9997
2 45016  97.5020 271.6573 0009463 189.3859 170.7196 15.10873675359873
JILIN-1 KUANFU-01B      
1 49003U 21061A   26198.32874128  .00001125  00000+0  73502-4 0  9996
2 49003  97.5207 273.9620 0005724 330.5983  29.4924 15.09814159277892
JILIN-1 KUANFU 01C      
1 52443U 22048A   26198.25463640  .00001171  00000+0  76622-4 0  9996
2 52443  97.5250 274.8796 0017471 212.7474 147.2673 15.09605341231738
JILIN-1 KUANFU 02A      
1 57696U 23127A   26198.27228232  .00002597  00000+0  15997-3 0  9998
2 57696  97.5571 291.7115 0010441 228.8086 131.2244 15.10822139160173
JILIN-01 KUANFU 02B 1   
1 61189U 24169A   26198.28843026  .00001529  00000+0  10052-3 0  9993
2 61189  97.5577 287.3497 0001364 331.5959  28.5195 15.09064525100363
JILIN-01 KUANFU 02B 2   
1 61190U 24169B   26198.26810746  .00001897  00000+0  12392-3 0  9993
2 61190  97.5570 286.7141 0004838 269.7969  90.2705 15.09026114100364
JILIN-01 KUANFU 02B 3   
1 61191U 24169C   26198.27700235  .00001745  00000+0  11404-3 0  9991
2 61191  97.5566 287.1558 0013225 198.4844 161.5906 15.09064474100363
JILIN-01 KUANFU 02B 4   
1 61192U 24169D   26198.31210591  .00001976  00000+0  12854-3 0  9994
2 61192  97.5533 286.7157 0014256 156.6587 203.5292 15.09053401100377
JILIN-01 KUANFU 02B 5   
1 61193U 24169E   26198.23278397  .00001591  00000+0  10422-3 0  9996
2 61193  97.5578 287.4358 0013360 180.4495 179.6724 15.09083001100367
JILIN-01 KUANFU 02B 6   
1 61194U 24169F   26198.25647471  .00002042  00000+0  13271-3 0  9999
2 61194  97.5558 287.3510 0015791 213.8587 146.1635 15.09042447100378
